{
  "norad_id": 60501,
  "name": "FLOCK 4BE-11",
  "history": [
    {
      "epoch": "2026-04-14T04:38:33.539136Z",
      "apogee_km": 447.0419127776786,
      "perigee_km": 440.0140970563116,
      "latitude_deg": -2.0400552852925252e-05,
      "longitude_deg": -84.31012399251641,
      "height_km": 449.32666772083246,
      "semi_major_axis_km": 6821.665004916995,
      "eccentricity": 0.00051511,
      "inclination_deg": 97.3711,
      "raan_deg": 187.703,
      "arg_perigee_deg": 139.8061,
      "mean_anomaly_deg": 220.3567,
      "mean_motion_rev_day": 15.40874185
    },
    {
      "epoch": "2026-04-15T16:29:22.116192Z",
      "apogee_km": 447.0160959163413,
      "perigee_km": 439.86026355279955,
      "latitude_deg": 6.31239526841636e-05,
      "longitude_deg": 98.02168658301726,
      "height_km": 449.1165121761772,
      "semi_major_axis_km": 6821.57517973457,
      "eccentricity": 0.0005245,
      "inclination_deg": 97.3709,
      "raan_deg": 189.2094,
      "arg_perigee_deg": 135.7867,
      "mean_anomaly_deg": 224.38,
      "mean_motion_rev_day": 15.4090462
    },
    {
      "epoch": "2026-04-16T15:52:02.897760Z",
      "apogee_km": 447.00063756386044,
      "perigee_km": 439.7602789336752,
      "latitude_deg": 8.010496592890911e-06,
      "longitude_deg": 107.37437221542179,
      "height_km": 448.9569161639215,
      "semi_major_axis_km": 6821.517458248767,
      "eccentricity": 0.0005307,
      "inclination_deg": 97.3713,
      "raan_deg": 190.1921,
      "arg_perigee_deg": 132.8724,
      "mean_anomaly_deg": 227.2969,
      "mean_motion_rev_day": 15.40924178
    },
    {
      "epoch": "2026-04-17T16:48:13.193280Z",
      "apogee_km": 446.9454705391763,
      "perigee_km": 439.6716267217598,
      "latitude_deg": 2.3687902577027117e-05,
      "longitude_deg": 93.35558058438546,
      "height_km": 448.7697781446477,
      "semi_major_axis_km": 6821.445548630468,
      "eccentricity": 0.00053316,
      "inclination_deg": 97.3712,
      "raan_deg": 191.2403,
      "arg_perigee_deg": 130.2146,
      "mean_anomaly_deg": 229.9568,
      "mean_motion_rev_day": 15.40948544
    },
    {
      "epoch": "2026-04-18T05:16:17.760000Z",
      "apogee_km": 446.9090844311804,
      "perigee_km": 439.636370236286,
      "latitude_deg": 3.827555981061307e-05,
      "longitude_deg": -93.65148885106295,
      "height_km": 448.6764416439029,
      "semi_major_axis_km": 6821.409727333733,
      "eccentricity": 0.00053308,
      "inclination_deg": 97.371,
      "raan_deg": 191.7643,
      "arg_perigee_deg": 129.0481,
      "mean_anomaly_deg": 231.1241,
      "mean_motion_rev_day": 15.40960682
    },
    {
      "epoch": "2026-04-19T04:38:55.036320Z",
      "apogee_km": 446.8340571356239,
      "perigee_km": 439.5053816224572,
      "latitude_deg": 0.00010004674704466031,
      "longitude_deg": -84.28427519356823,
      "height_km": 448.46219076595537,
      "semi_major_axis_km": 6821.30671937904,
      "eccentricity": 0.00053719,
      "inclination_deg": 97.3707,
      "raan_deg": 192.7469,
      "arg_perigee_deg": 126.5054,
      "mean_anomaly_deg": 233.6689,
      "mean_motion_rev_day": 15.40995587
    },
    {
      "epoch": "2026-04-20T11:49:02.064000Z",
      "apogee_km": 446.73131978636593,
      "perigee_km": 439.3814838958824,
      "latitude_deg": -8.229660975971978e-06,
      "longitude_deg": 168.2166049425902,
      "height_km": 448.1779123562962,
      "semi_major_axis_km": 6821.193401841124,
      "eccentricity": 0.00053875,
      "inclination_deg": 97.37,
      "raan_deg": 194.0571,
      "arg_perigee_deg": 123.145,
      "mean_anomaly_deg": 237.0314,
      "mean_motion_rev_day": 15.41033987
    },
    {
      "epoch": "2026-04-21T18:59:06.298368Z",
      "apogee_km": 446.630344007639,
      "perigee_km": 439.24857506312946,
      "latitude_deg": 2.1709788102682366e-05,
      "longitude_deg": 60.72923687419858,
      "height_km": 447.87951597540945,
      "semi_major_axis_km": 6821.076459535384,
      "eccentricity": 0.0005411,
      "inclination_deg": 97.3699,
      "raan_deg": 195.3674,
      "arg_perigee_deg": 119.692,
      "mean_anomaly_deg": 240.4866,
      "mean_motion_rev_day": 15.41073617
    }
  ]
}